IRIDIUM 7               
1 24793U 97020B   25045.03820156  .00000698  00000+0  23471-3 0  9996
2 24793  86.3936 228.4650 0002158  98.1880 261.9561 14.35759908454441
IRIDIUM 5               
1 24795U 97020D   25045.50380958  .00009465  00000+0  81417-3 0  9996
2 24795  86.3942 140.2373 0111683 217.3939 141.9482 14.92486623467185
IRIDIUM 4               
1 24796U 97020E   25045.51716466  .00000723  00000+0  23902-3 0  9998
2 24796  86.3936 225.2217 0001980  94.5492 265.5931 14.36670793454883
IRIDIUM 914             
1 24836U 97030A   25045.02802835  .00000826  00000+0  25267-3 0  9996
2 24836  86.3903 234.4028 0000416 107.0167 253.1078 14.40653783451490
IRIDIUM 16              
1 24841U 97030F   25044.94280226  .00000694  00000+0  22065-3 0  9992
2 24841  86.3984 257.0505 0004177 100.2483 259.9187 14.38512854449289
IRIDIUM 911             
1 24842U 97030G   25045.06964311  .00000947  00000+0  25272-3 0  9995
2 24842  86.4410 255.8938 0015359 141.7939 218.4356 14.47362730457251
IRIDIUM 17              
1 24870U 97034B   25045.20194282  .00000737  00000+0  23898-3 0  9997
2 24870  86.3934 286.5023 0003604  73.3479 286.8114 14.37630897445919
IRIDIUM 920             
1 24871U 97034C   25045.14412601  .00000662  00000+0  19845-3 0  9993
2 24871  86.3927 266.0171 0013170 122.3777 237.8699 14.41332349449110
